{"type":"FeatureCollection","features":[{"type":"Feature","id":"chg-000","geometry":{"type":"Polygon","coordinates":[[[93.88868,26.786504],[93.888859,26.787402],[93.889129,26.787402],[93.889129,26.788121],[93.889488,26.788121],[93.889488,26.788301],[93.889937,26.78848],[93.890027,26.789019],[93.890925,26.789558],[93.890925,26.789918],[93.891375,26.790097],[93.891734,26.790996],[93.892183,26.791175],[93.893351,26.792433],[93.894159,26.792792],[93.894339,26.793152],[93.894788,26.793152],[93.895147,26.793691],[93.895776,26.793691],[93.895956,26.79405],[93.896405,26.79405],[93.896585,26.794409],[93.897393,26.794589],[93.897393,26.794948],[93.897842,26.795128],[93.898202,26.795667],[93.898651,26.795667],[93.898831,26.796206],[93.89919,26.796206],[93.89919,26.796386],[93.899459,26.796206],[93.899998,26.796745],[93.900358,26.796655],[93.900807,26.797284],[93.901256,26.797284],[93.901615,26.797823],[93.902064,26.797913],[93.901795,26.797374],[93.901705,26.796206],[93.901525,26.796206],[93.901525,26.795667],[93.901346,26.795667],[93.901436,26.795218],[93.901256,26.795218],[93.901346,26.794679],[93.901076,26.793241],[93.900897,26.793241],[93.900897,26.792164],[93.900447,26.790996],[93.900537,26.790277],[93.899549,26.790097],[93.89919,26.789738],[93.898741,26.789738],[93.898381,26.789199],[93.897932,26.789199],[93.897753,26.789019],[93.897753,26.78857],[93.897932,26.78866],[93.897753,26.788301],[93.897393,26.788301],[93.897573,26.78848],[93.897393,26.78893],[93.896315,26.78866],[93.896315,26.788121],[93.896585,26.788391],[93.896585,26.788121],[93.896944,26.788121],[93.896944,26.787941],[93.896136,26.787582],[93.895956,26.787043],[93.895507,26.786863],[93.895327,26.785785],[93.895147,26.785696],[93.895147,26.784708],[93.895686,26.784348],[93.895686,26.783989],[93.895956,26.783989],[93.895956,26.783719],[93.896495,26.78363],[93.896675,26.783001],[93.897124,26.783001],[93.897214,26.78318],[93.897483,26.782911],[93.897483,26.782641],[93.897842,26.782372],[93.897842,26.781923],[93.898112,26.781833],[93.898022,26.781563],[93.898292,26.781474],[93.898561,26.781833],[93.898741,26.781474],[93.898741,26.781204],[93.898471,26.781204],[93.898561,26.780306],[93.898381,26.780306],[93.898471,26.779946],[93.898292,26.779946],[93.898381,26.779587],[93.898022,26.778779],[93.898022,26.777611],[93.897303,26.777521],[93.897303,26.777251],[93.897932,26.777162],[93.897753,26.777162],[93.897663,26.776712],[93.897303,26.776712],[93.897303,26.776443],[93.897034,26.776443],[93.897034,26.776174],[93.896764,26.776174],[93.896764,26.775096],[93.897303,26.774826],[93.897303,26.774287],[93.897124,26.774287],[93.897034,26.773119],[93.896764,26.77294],[93.896764,26.771592],[93.896495,26.771323],[93.896675,26.770873],[93.896405,26.770873],[93.896405,26.770424],[93.894698,26.769167],[93.89398,26.768897],[93.8938,26.768358],[93.889308,26.768358],[93.889039,26.768717],[93.887871,26.768987],[93.887512,26.768987],[93.887152,26.768448],[93.885895,26.768448],[93.885985,26.768628],[93.885356,26.768628],[93.885356,26.768807],[93.884727,26.768897],[93.884188,26.769346],[93.88329,26.769616],[93.881403,26.769616],[93.879966,26.770065],[93.878798,26.769795],[93.878978,26.770155],[93.878259,26.770334],[93.876642,26.770334],[93.876462,26.770604],[93.873678,26.771053],[93.873229,26.770873],[93.873229,26.772131],[93.873318,26.772401],[93.873588,26.772401],[93.873588,26.77294],[93.873857,26.77294],[93.873857,26.773479],[93.874127,26.773479],[93.874127,26.773748],[93.874666,26.774018],[93.874666,26.774287],[93.875474,26.774287],[93.875474,26.774557],[93.875744,26.774557],[93.875744,26.775006],[93.876912,26.774916],[93.877181,26.775185],[93.87781,26.775275],[93.87772,26.774916],[93.878169,26.774826],[93.878259,26.774557],[93.878708,26.774467],[93.878798,26.774736],[93.879157,26.774736],[93.879157,26.775006],[93.879517,26.775185],[93.879517,26.775545],[93.878529,26.775545],[93.878529,26.775096],[93.878349,26.775185],[93.878439,26.775455],[93.87772,26.775545],[93.87799,26.775545],[93.878169,26.775994],[93.878349,26.775994],[93.878349,26.776174],[93.87799,26.776084],[93.87781,26.776353],[93.878439,26.776263],[93.878349,26.776892],[93.878169,26.776982],[93.878708,26.776982],[93.878708,26.777251],[93.879247,26.777521],[93.879247,26.77806],[93.879517,26.77806],[93.879517,26.778329],[93.881134,26.778599],[93.881134,26.779138],[93.881673,26.779138],[93.881942,26.778599],[93.882751,26.778599],[93.882751,26.778868],[93.883829,26.778868],[93.883829,26.778599],[93.884368,26.778599],[93.884098,26.77806],[93.885176,26.778329],[93.885176,26.778599],[93.884637,26.778599],[93.884637,26.778868],[93.884368,26.778868],[93.884368,26.779407],[93.884637,26.779407],[93.884637,26.779677],[93.884098,26.779677],[93.884098,26.779946],[93.883829,26.779946],[93.883829,26.780216],[93.88338,26.780216],[93.88338,26.780396],[93.884637,26.780396],[93.884637,26.780216],[93.885446,26.780216],[93.885446,26.780036],[93.887152,26.779677],[93.886973,26.780485],[93.886613,26.780575],[93.886613,26.780755],[93.885446,26.780755],[93.885446,26.781114],[93.887961,26.780935],[93.888051,26.780755],[93.886883,26.780845],[93.887063,26.780396],[93.887781,26.779946],[93.887602,26.779497],[93.891913,26.778689],[93.892452,26.778779],[93.892452,26.778599],[93.895327,26.77824],[93.895776,26.77797],[93.897303,26.77815],[93.897303,26.778509],[93.897573,26.778689],[93.897393,26.780485],[93.896315,26.781653],[93.895686,26.78363],[93.895147,26.784169],[93.894878,26.784169],[93.894519,26.784708],[93.894069,26.784708],[93.89389,26.785067],[93.89371,26.784887],[93.891913,26.784887],[93.891913,26.785067],[93.889308,26.784887],[93.88832,26.784528],[93.88832,26.784348],[93.887871,26.784348],[93.887691,26.783989],[93.887242,26.783989],[93.886883,26.78345],[93.886254,26.78327],[93.885985,26.784708],[93.886524,26.784528],[93.886524,26.784797],[93.887332,26.784797],[93.887332,26.785067],[93.887602,26.785067],[93.887602,26.785336],[93.886703,26.785336],[93.886883,26.785696],[93.886793,26.786055],[93.886434,26.786055],[93.886703,26.786324],[93.886524,26.786504],[93.886883,26.786684],[93.886883,26.786504],[93.8885,26.786324],[93.88832,26.786504],[93.88868,26.786504]],[[93.888859,26.786774],[93.888769,26.786684],[93.888859,26.786684],[93.888859,26.786774]],[[93.896495,26.782641],[93.896764,26.781833],[93.897573,26.781384],[93.897483,26.782282],[93.896944,26.782462],[93.896944,26.782641],[93.896495,26.782641]],[[93.895237,26.787941],[93.894968,26.787582],[93.895058,26.787313],[93.895327,26.787402],[93.895237,26.787941]],[[93.894698,26.787941],[93.894608,26.787762],[93.894698,26.787762],[93.894698,26.787941]],[[93.892722,26.788301],[93.892902,26.786863],[93.892542,26.786504],[93.892542,26.786145],[93.892273,26.786145],[93.892273,26.785606],[93.893351,26.785606],[93.89353,26.786504],[93.89389,26.786504],[93.89389,26.786863],[93.894519,26.787043],[93.894519,26.788301],[93.892722,26.788301]],[[93.89371,26.789738],[93.89353,26.789379],[93.894339,26.789379],[93.894339,26.789738],[93.89371,26.789738]],[[93.89398,26.772401],[93.892003,26.772311],[93.891824,26.771772],[93.890925,26.771412],[93.891105,26.771233],[93.892183,26.771143],[93.892273,26.771592],[93.893081,26.771412],[93.894069,26.771772],[93.89398,26.772401]],[[93.884727,26.775096],[93.882841,26.774197],[93.880235,26.773928],[93.879966,26.773838],[93.879966,26.773568],[93.879427,26.773658],[93.878978,26.773209],[93.87772,26.773029],[93.87754,26.77267],[93.878888,26.772131],[93.878888,26.771951],[93.879966,26.771951],[93.880146,26.77249],[93.880505,26.77249],[93.880505,26.77267],[93.881673,26.77267],[93.882212,26.772401],[93.882751,26.77258],[93.88338,26.77249],[93.883739,26.772131],[93.884907,26.772041],[93.886074,26.77276],[93.887961,26.773119],[93.888769,26.773928],[93.88868,26.774107],[93.884727,26.775096]],[[93.886254,26.778868],[93.886254,26.778599],[93.885715,26.778599],[93.885715,26.778329],[93.886524,26.778329],[93.886524,26.77806],[93.888141,26.77806],[93.888141,26.778329],[93.887602,26.778329],[93.887602,26.778599],[93.886524,26.778599],[93.886524,26.778868],[93.886254,26.778868]],[[93.887512,26.786414],[93.887152,26.786324],[93.887512,26.786324],[93.887512,26.786414]],[[93.885176,26.77806],[93.885176,26.77779],[93.885715,26.77779],[93.885715,26.77806],[93.885176,26.77806]],[[93.884457,26.771502],[93.884368,26.771412],[93.884457,26.771412],[93.884457,26.771502]],[[93.884188,26.771951],[93.882391,26.772221],[93.882661,26.772131],[93.882571,26.771951],[93.88311,26.771951],[93.88311,26.771772],[93.883559,26.771772],[93.883829,26.771412],[93.884188,26.771412],[93.884008,26.771502],[93.884188,26.771951]],[[93.88293,26.771233],[93.882122,26.771323],[93.882302,26.770873],[93.88293,26.771053],[93.88293,26.771233]],[[93.881224,26.775006],[93.880146,26.774287],[93.881403,26.774287],[93.882661,26.774916],[93.881224,26.775006]],[[93.881134,26.772131],[93.880325,26.771772],[93.880325,26.771412],[93.880774,26.771412],[93.880595,26.771592],[93.881134,26.771772],[93.882122,26.771772],[93.882122,26.772041],[93.881134,26.772131]],[[93.878888,26.777072],[93.879157,26.776443],[93.879696,26.776443],[93.879696,26.776892],[93.878888,26.777072]],[[93.879517,26.773838],[93.879427,26.773748],[93.879517,26.773748],[93.879517,26.773838]],[[93.876732,26.774107],[93.876283,26.774018],[93.876732,26.774018],[93.876732,26.774107]],[[93.875744,26.773838],[93.875654,26.773479],[93.876103,26.773568],[93.876103,26.773748],[93.875744,26.773838]]]},"properties":{"class":"new_water","rank":1,"area_sq_km":2.8762}},{"type":"Feature","id":"chg-001","geometry":{"type":"Polygon","coordinates":[[[93.873229,26.814352],[93.883918,26.814352],[93.883649,26.814172],[93.883918,26.812915],[93.885266,26.812735],[93.886074,26.811747],[93.886703,26.810399],[93.886613,26.807704],[93.886344,26.806626],[93.886164,26.806537],[93.886074,26.806896],[93.885535,26.806986],[93.885535,26.808693],[93.885985,26.809142],[93.885715,26.810848],[93.884637,26.812016],[93.88311,26.812915],[93.882661,26.813903],[93.881224,26.813723],[93.87781,26.811926],[93.875744,26.811747],[93.875564,26.811657],[93.875564,26.810938],[93.875744,26.810848],[93.875025,26.81022],[93.874396,26.811657],[93.873229,26.811298],[93.873229,26.814352]],[[93.882751,26.813903],[93.882841,26.813813],[93.882841,26.813903],[93.882751,26.813903]]]},"properties":{"class":"new_water","rank":2,"area_sq_km":0.2981}},{"type":"Feature","id":"chg-002","geometry":{"type":"Polygon","coordinates":[[[93.897753,26.787043],[93.898381,26.786863],[93.898561,26.786324],[93.898741,26.786504],[93.898651,26.785246],[93.8991,26.784977],[93.89892,26.784169],[93.899459,26.784438],[93.89901,26.783719],[93.89901,26.782552],[93.898381,26.78336],[93.897753,26.78336],[93.897753,26.783719],[93.897303,26.783899],[93.897393,26.784079],[93.898292,26.78345],[93.898292,26.783899],[93.897034,26.785157],[93.897034,26.785516],[93.896764,26.785246],[93.896764,26.786145],[93.896495,26.786145],[93.896585,26.786863],[93.897753,26.786684],[93.897753,26.787043]],[[93.898202,26.784797],[93.898022,26.784708],[93.898202,26.784708],[93.898202,26.784797]],[[93.898022,26.785336],[93.897842,26.785157],[93.898022,26.785246],[93.898022,26.785336]],[[93.897573,26.785965],[93.897393,26.785426],[93.897753,26.785246],[93.897842,26.785696],[93.897663,26.785606],[93.897753,26.785965],[93.897573,26.785965]],[[93.897663,26.786414],[93.897573,26.786324],[93.897663,26.786324],[93.897663,26.786414]],[[93.897663,26.786414],[93.897842,26.786414],[93.897842,26.786594],[93.897663,26.786594],[93.897663,26.786414]],[[93.896944,26.786145],[93.897124,26.785696],[93.897303,26.785696],[93.897303,26.786145],[93.896944,26.786145]],[[93.897303,26.786324],[93.897214,26.786235],[93.897303,26.786235],[93.897303,26.786324]]]},"properties":{"class":"new_water","rank":3,"area_sq_km":0.0613}},{"type":"Feature","id":"chg-003","geometry":{"type":"Polygon","coordinates":[[[93.889668,26.783989],[93.890476,26.783989],[93.890476,26.783809],[93.890117,26.78345],[93.888859,26.783091],[93.88868,26.782552],[93.888051,26.782731],[93.887871,26.782192],[93.887691,26.782192],[93.887871,26.781833],[93.8885,26.782192],[93.88868,26.781653],[93.889039,26.781653],[93.889398,26.781294],[93.887152,26.781743],[93.884817,26.781563],[93.884817,26.782013],[93.885266,26.782013],[93.885266,26.782192],[93.886434,26.782192],[93.886254,26.782372],[93.886613,26.782731],[93.887691,26.78327],[93.887871,26.78363],[93.887961,26.78345],[93.888051,26.78363],[93.889039,26.78363],[93.889039,26.783809],[93.889668,26.783809],[93.889668,26.783989]],[[93.887242,26.782731],[93.886883,26.782372],[93.886883,26.782102],[93.887691,26.782372],[93.887691,26.782731],[93.887242,26.782731]]]},"properties":{"class":"new_water","rank":4,"area_sq_km":0.0524}},{"type":"Feature","id":"chg-004","geometry":{"type":"Polygon","coordinates":[[[93.885625,26.806267],[93.885985,26.806177],[93.884368,26.80456],[93.88329,26.803931],[93.881942,26.802764],[93.880954,26.802494],[93.880954,26.803392],[93.881134,26.803572],[93.881942,26.803842],[93.88311,26.80465],[93.883829,26.80483],[93.885625,26.806267]]]},"properties":{"class":"new_water","rank":5,"area_sq_km":0.0423}},{"type":"Feature","id":"chg-005","geometry":{"type":"Polygon","coordinates":[[[93.877091,26.779138],[93.87763,26.779138],[93.8779,26.778599],[93.878439,26.778599],[93.878439,26.77806],[93.878169,26.77806],[93.8779,26.777521],[93.877091,26.777521],[93.877091,26.777251],[93.876013,26.777251],[93.876013,26.777521],[93.875744,26.777521],[93.875744,26.77806],[93.876013,26.77806],[93.876283,26.778599],[93.876822,26.778599],[93.877091,26.779138]]]},"properties":{"class":"new_water","rank":6,"area_sq_km":0.0354}},{"type":"Feature","id":"chg-006","geometry":{"type":"Polygon","coordinates":[[[93.901975,26.803752],[93.903502,26.80474],[93.903412,26.804111],[93.902244,26.803123],[93.898651,26.801416],[93.897842,26.801416],[93.898292,26.801596],[93.898112,26.801775],[93.898471,26.801955],[93.89892,26.801955],[93.900178,26.802494],[93.900447,26.802853],[93.900807,26.802943],[93.900807,26.803213],[93.901975,26.803752]]]},"properties":{"class":"new_water","rank":7,"area_sq_km":0.0344}},{"type":"Feature","id":"chg-007","geometry":{"type":"Polygon","coordinates":[[[93.885985,26.794679],[93.886164,26.794679],[93.886074,26.79378],[93.885266,26.792792],[93.884996,26.792792],[93.884907,26.792343],[93.88293,26.791355],[93.882302,26.791625],[93.884907,26.792792],[93.884817,26.793062],[93.885176,26.793241],[93.885086,26.793601],[93.885356,26.793691],[93.885985,26.794679]]]},"properties":{"class":"new_water","rank":8,"area_sq_km":0.0239}},{"type":"Feature","id":"chg-008","geometry":{"type":"Polygon","coordinates":[[[93.893081,26.800338],[93.894519,26.800877],[93.894429,26.800248],[93.892093,26.79953],[93.891375,26.798991],[93.890925,26.799081],[93.890566,26.798631],[93.890207,26.798631],[93.890836,26.79935],[93.891195,26.79935],[93.891195,26.79953],[93.891824,26.799709],[93.892632,26.800338],[93.893081,26.800338]]]},"properties":{"class":"new_water","rank":9,"area_sq_km":0.0223}},{"type":"Feature","id":"chg-009","geometry":{"type":"Polygon","coordinates":[[[93.873229,26.799979],[93.875025,26.800608],[93.875025,26.800428],[93.874217,26.798901],[93.873229,26.798811],[93.873229,26.799979]]]},"properties":{"class":"new_water","rank":10,"area_sq_km":0.0213}},{"type":"Feature","id":"chg-010","geometry":{"type":"Polygon","coordinates":[[[93.899909,26.79935],[93.901076,26.79917],[93.900986,26.798991],[93.900358,26.79917],[93.899549,26.798901],[93.898561,26.798272],[93.897303,26.797913],[93.895417,26.798003],[93.895597,26.798182],[93.896495,26.798182],[93.898471,26.798631],[93.899909,26.79935]]]},"properties":{"class":"new_water","rank":11,"area_sq_km":0.0183}},{"type":"Feature","id":"chg-011","geometry":{"type":"Polygon","coordinates":[[[93.888949,26.802225],[93.889039,26.801506],[93.88841,26.801147],[93.88832,26.800608],[93.887871,26.800338],[93.887691,26.79962],[93.887152,26.79953],[93.887961,26.801057],[93.88841,26.801326],[93.88832,26.801506],[93.88859,26.801865],[93.888859,26.801865],[93.88868,26.802045],[93.888949,26.802225]]]},"properties":{"class":"new_water","rank":12,"area_sq_km":0.0122}},{"type":"Feature","id":"chg-012","geometry":{"type":"Polygon","coordinates":[[[93.876013,26.802764],[93.876193,26.802584],[93.874486,26.800967],[93.874217,26.800967],[93.873947,26.800608],[93.873229,26.800518],[93.873498,26.800967],[93.875205,26.801865],[93.876013,26.802764]]]},"properties":{"class":"new_water","rank":13,"area_sq_km":0.0117}},{"type":"Feature","id":"chg-013","geometry":{"type":"Polygon","coordinates":[[[93.888949,26.797913],[93.889398,26.797913],[93.889398,26.797553],[93.888949,26.797374],[93.88859,26.796835],[93.888141,26.796835],[93.887332,26.795936],[93.886973,26.795936],[93.888949,26.797913]],[[93.889219,26.797823],[93.889129,26.797733],[93.889219,26.797733],[93.889219,26.797823]]]},"properties":{"class":"new_water","rank":14,"area_sq_km":0.0107}},{"type":"Feature","id":"chg-014","geometry":{"type":"Polygon","coordinates":[[[93.886344,26.79926],[93.886613,26.79926],[93.886793,26.798901],[93.887152,26.798991],[93.887152,26.798003],[93.886793,26.798542],[93.886344,26.798452],[93.886344,26.79926]]]},"properties":{"class":"new_water","rank":15,"area_sq_km":0.0061}},{"type":"Feature","id":"chg-015","geometry":{"type":"Polygon","coordinates":[[[93.900986,26.79962],[93.901705,26.79962],[93.902244,26.79926],[93.902244,26.798991],[93.901076,26.79926],[93.900986,26.79962]]]},"properties":{"class":"new_water","rank":16,"area_sq_km":0.0055}},{"type":"Feature","id":"chg-016","geometry":{"type":"Polygon","coordinates":[[[93.873408,26.780216],[93.874037,26.780216],[93.873588,26.779407],[93.873229,26.779407],[93.873229,26.780036],[93.873408,26.780216]]]},"properties":{"class":"new_water","rank":17,"area_sq_km":0.005}}]}